{"fetched_at":"2026-07-20T18:28:52.300Z","source":"https://celestrak.org/NORAD/elements/gp.php?GROUP=oneweb&FORMAT=JSON","constellation":"oneweb","records":[{"OBJECT_NAME":"ONEWEB-0224","OBJECT_ID":"2021-045AD","EPOCH":"2026-07-20T02:22:47.252064","CLASSIFICATION_TYPE":"U","MEAN_MOTION":13.15549069,"ECCENTRICITY":0.00029386,"INCLINATION":87.8978,"RA_OF_ASC_NODE":252.6693,"ARG_OF_PERICENTER":93.3481,"MEAN_ANOMALY":266.7986,"EPHEMERIS_TYPE":0,"NORAD_CAT_ID":48794,"ELEMENT_SET_NO":999,"REV_AT_EPOCH":24860,"BSTAR":-0.000068386011,"MEAN_MOTION_DOT":-1.3e-7,"MEAN_MOTION_DDOT":0},{"OBJECT_NAME":"ONEWEB-0233","OBJECT_ID":"2021-045AE","EPOCH":"2026-07-20T02:29:24.660096","CLASSIFICATION_TYPE":"U","MEAN_MOTION":13.15551096,"ECCENTRICITY":0.00022979,"INCLINATION":87.8976,"RA_OF_ASC_NODE":252.6757,"ARG_OF_PERICENTER":101.9848,"MEAN_ANOMALY":258.154,"EPHEMERIS_TYPE":0,"NORAD_CAT_ID":48795,"ELEMENT_SET_NO":999,"REV_AT_EPOCH":24862,"BSTAR":-0.00013908177,"MEAN_MOTION_DOT":-4e-7,"MEAN_MOTION_DDOT":0},{"OBJECT_NAME":"ONEWEB-0190","OBJECT_ID":"2021-045AF","EPOCH":"2026-07-20T02:11:22.399008","CLASSIFICATION_TYPE":"U","MEAN_MOTION":13.15548992,"ECCENTRICITY":0.00023908,"INCLINATION":87.8985,"RA_OF_ASC_NODE":252.6415,"ARG_OF_PERICENTER":112.8254,"MEAN_ANOMALY":247.3129,"EPHEMERIS_TYPE":0,"NORAD_CAT_ID":48796,"ELEMENT_SET_NO":999,"REV_AT_EPOCH":24869,"BSTAR":-0.00022953418,"MEAN_MOTION_DOT":-7.4e-7,"MEAN_MOTION_DDOT":0},{"OBJECT_NAME":"ONEWEB-0236","OBJECT_ID":"2021-045AG","EPOCH":"2026-07-20T02:36:28.769184","CLASSIFICATION_TYPE":"U","MEAN_MOTION":13.15548426,"ECCENTRICITY":0.00020885,"INCLINATION":87.8974,"RA_OF_ASC_NODE":252.646,"ARG_OF_PERICENTER":93.6367,"MEAN_ANOMALY":266.5002,"EPHEMERIS_TYPE":0,"NORAD_CAT_ID":48797,"ELEMENT_SET_NO":999,"REV_AT_EPOCH":24858,"BSTAR":-0.00012238007,"MEAN_MOTION_DOT":-3.3e-7,"MEAN_MOTION_DDOT":0},{"OBJECT_NAME":"ONEWEB-0248","OBJECT_ID":"2021-045AH","EPOCH":"2026-07-20T02:54:43.248096","CLASSIFICATION_TYPE":"U","MEAN_MOTION":13.15549679,"ECCENTRICITY":0.00024212,"INCLINATION":87.899,"RA_OF_ASC_NODE":252.6305,"ARG_OF_PERICENTER":103.6806,"MEAN_ANOMALY":256.4594,"EPHEMERIS_TYPE":0,"NORAD_CAT_ID":48798,"ELEMENT_SET_NO":999,"REV_AT_EPOCH":24874,"BSTAR":0.00028614144,"MEAN_MOTION_DOT":0.00000121,"MEAN_MOTION_DDOT":0},{"OBJECT_NAME":"ONEWEB-0225","OBJECT_ID":"2021-045AJ","EPOCH":"2026-07-20T03:26:40.872768","CLASSIFICATION_TYPE":"U","MEAN_MOTION":13.15548992,"ECCENTRICITY":0.00023051,"INCLINATION":87.8986,"RA_OF_ASC_NODE":252.6328,"ARG_OF_PERICENTER":110.4711,"MEAN_ANOMALY":249.6667,"EPHEMERIS_TYPE":0,"NORAD_CAT_ID":48799,"ELEMENT_SET_NO":999,"REV_AT_EPOCH":24875,"BSTAR":0.00039564169,"MEAN_MOTION_DOT":0.00000162,"MEAN_MOTION_DDOT":0},{"OBJECT_NAME":"ONEWEB-0215","OBJECT_ID":"2021-045AK","EPOCH":"2026-07-20T02:43:18.519456","CLASSIFICATION_TYPE":"U","MEAN_MOTION":13.15549059,"ECCENTRICITY":0.00025082,"INCLINATION":87.8985,"RA_OF_ASC_NODE":252.6231,"ARG_OF_PERICENTER":110.9424,"MEAN_ANOMALY":249.1975,"EPHEMERIS_TYPE":0,"NORAD_CAT_ID":48800,"ELEMENT_SET_NO":999,"REV_AT_EPOCH":24862,"BSTAR":-0.000014791483,"MEAN_MOTION_DOT":7e-8,"MEAN_MOTION_DDOT":0},{"OBJECT_NAME":"ONEWEB-0216","OBJECT_ID":"2021-045AL","EPOCH":"2026-07-20T02:57:00.976608","CLASSIFICATION_TYPE":"U","MEAN_MOTION":13.15548986,"ECCENTRICITY":0.00019371,"INCLINATION":87.8987,"RA_OF_ASC_NODE":252.635,"ARG_OF_PERICENTER":96.2285,"MEAN_ANOMALY":263.9066,"EPHEMERIS_TYPE":0,"NORAD_CAT_ID":48801,"ELEMENT_SET_NO":999,"REV_AT_EPOCH":24863,"BSTAR":0.0003381916,"MEAN_MOTION_DOT":0.0000014,"MEAN_MOTION_DDOT":0},{"OBJECT_NAME":"ONEWEB-0239","OBJECT_ID":"2021-045AM","EPOCH":"2026-07-20T03:03:52.022016","CLASSIFICATION_TYPE":"U","MEAN_MOTION":13.15547841,"ECCENTRICITY":0.00027845,"INCLINATION":87.8972,"RA_OF_ASC_NODE":252.6377,"ARG_OF_PERICENTER":108.0919,"MEAN_ANOMALY":252.0515,"EPHEMERIS_TYPE":0,"NORAD_CAT_ID":48802,"ELEMENT_SET_NO":999,"REV_AT_EPOCH":24867,"BSTAR":0.00034597996,"MEAN_MOTION_DOT":0.00000143,"MEAN_MOTION_DDOT":0},{"OBJECT_NAME":"ONEWEB-0249","OBJECT_ID":"2021-060A","EPOCH":"2026-07-20T02:40:38.572320","CLASSIFICATION_TYPE":"U","MEAN_MOTION":13.16592344,"ECCENTRICITY":0.00021603,"INCLINATION":87.9075,"RA_OF_ASC_NODE":222.238,"ARG_OF_PERICENTER":93.6597,"MEAN_ANOMALY":266.4781,"EPHEMERIS_TYPE":0,"NORAD_CAT_ID":48967,"ELEMENT_SET_NO":999,"REV_AT_EPOCH":24394,"BSTAR":0.000002602271,"MEAN_MOTION_DOT":1.4e-7,"MEAN_MOTION_DDOT":0},{"OBJECT_NAME":"ONEWEB-0250","OBJECT_ID":"2021-060B","EPOCH":"2026-07-20T01:27:09.004896","CLASSIFICATION_TYPE":"U","MEAN_MOTION":13.25835494,"ECCENTRICITY":0.00030185,"INCLINATION":87.9079,"RA_OF_ASC_NODE":219.897,"ARG_OF_PERICENTER":81.1956,"MEAN_ANOMALY":278.9522,"EPHEMERIS_TYPE":0,"NORAD_CAT_ID":48968,"ELEMENT_SET_NO":999,"REV_AT_EPOCH":24457,"BSTAR":0.000016808896,"MEAN_MOTION_DOT":2.1e-7,"MEAN_MOTION_DDOT":0},{"OBJECT_NAME":"ONEWEB-0252","OBJECT_ID":"2021-060D","EPOCH":"2026-07-20T03:25:06.722688","CLASSIFICATION_TYPE":"U","MEAN_MOTION":13.16595817,"ECCENTRICITY":0.00018809,"INCLINATION":87.9078,"RA_OF_ASC_NODE":222.2239,"ARG_OF_PERICENTER":96.515,"MEAN_ANOMALY":263.6195,"EPHEMERIS_TYPE":0,"NORAD_CAT_ID":48970,"ELEMENT_SET_NO":999,"REV_AT_EPOCH":24399,"BSTAR":0.000086554634,"MEAN_MOTION_DOT":4.6e-7,"MEAN_MOTION_DDOT":0},{"OBJECT_NAME":"ONEWEB-0253","OBJECT_ID":"2021-060E","EPOCH":"2026-07-20T01:19:43.188672","CLASSIFICATION_TYPE":"U","MEAN_MOTION":13.16595723,"ECCENTRICITY":0.00021702,"INCLINATION":87.9075,"RA_OF_ASC_NODE":222.2462,"ARG_OF_PERICENTER":90.9399,"MEAN_ANOMALY":269.198,"EPHEMERIS_TYPE":0,"NORAD_CAT_ID":48971,"ELEMENT_SET_NO":999,"REV_AT_EPOCH":24391,"BSTAR":0.000060681457,"MEAN_MOTION_DOT":3.6e-7,"MEAN_MOTION_DDOT":0},{"OBJECT_NAME":"ONEWEB-0254","OBJECT_ID":"2021-060F","EPOCH":"2026-07-20T07:01:43.225824","CLASSIFICATION_TYPE":"U","MEAN_MOTION":13.16594973,"ECCENTRICITY":0.00023469,"INCLINATION":87.9082,"RA_OF_ASC_NODE":222.1976,"ARG_OF_PERICENTER":97.2313,"MEAN_ANOMALY":262.9085,"EPHEMERIS_TYPE":0,"NORAD_CAT_ID":48972,"ELEMENT_SET_NO":999,"REV_AT_EPOCH":24394,"BSTAR":0.000095286513,"MEAN_MOTION_DOT":4.9e-7,"MEAN_MOTION_DDOT":0},{"OBJECT_NAME":"ONEWEB-0255","OBJECT_ID":"2021-060G","EPOCH":"2026-07-20T02:28:07.845312","CLASSIFICATION_TYPE":"U","MEAN_MOTION":13.16594098,"ECCENTRICITY":0.00021932,"INCLINATION":87.9076,"RA_OF_ASC_NODE":222.2416,"ARG_OF_PERICENTER":96.696,"MEAN_ANOMALY":263.4421,"EPHEMERIS_TYPE":0,"NORAD_CAT_ID":48973,"ELEMENT_SET_NO":999,"REV_AT_EPOCH":24399,"BSTAR":-0.000075384385,"MEAN_MOTION_DOT":-1.6e-7,"MEAN_MOTION_DDOT":0},{"OBJECT_NAME":"ONEWEB-0256","OBJECT_ID":"2021-060H","EPOCH":"2026-07-20T03:05:45.517920","CLASSIFICATION_TYPE":"U","MEAN_MOTION":13.16594553,"ECCENTRICITY":0.00019125,"INCLINATION":87.9073,"RA_OF_ASC_NODE":222.2388,"ARG_OF_PERICENTER":94.4079,"MEAN_ANOMALY":265.727,"EPHEMERIS_TYPE":0,"NORAD_CAT_ID":48974,"ELEMENT_SET_NO":999,"REV_AT_EPOCH":24396,"BSTAR":0.00005893399,"MEAN_MOTION_DOT":3.5e-7,"MEAN_MOTION_DDOT":0},{"OBJECT_NAME":"ONEWEB-0257","OBJECT_ID":"2021-060J","EPOCH":"2026-07-20T02:03:03.097728","CLASSIFICATION_TYPE":"U","MEAN_MOTION":13.16593904,"ECCENTRICITY":0.00020641,"INCLINATION":87.9077,"RA_OF_ASC_NODE":222.2359,"ARG_OF_PERICENTER":97.1146,"MEAN_ANOMALY":263.022,"EPHEMERIS_TYPE":0,"NORAD_CAT_ID":48975,"ELEMENT_SET_NO":999,"REV_AT_EPOCH":24391,"BSTAR":-0.00010967558,"MEAN_MOTION_DOT":-2.9e-7,"MEAN_MOTION_DDOT":0},{"OBJECT_NAME":"ONEWEB-0258","OBJECT_ID":"2021-060K","EPOCH":"2026-07-20T02:05:18.297312","CLASSIFICATION_TYPE":"U","MEAN_MOTION":13.16604313,"ECCENTRICITY":0.00022073,"INCLINATION":87.908,"RA_OF_ASC_NODE":222.2479,"ARG_OF_PERICENTER":93.0947,"MEAN_ANOMALY":267.0437,"EPHEMERIS_TYPE":0,"NORAD_CAT_ID":48976,"ELEMENT_SET_NO":999,"REV_AT_EPOCH":24392,"BSTAR":-0.0057582411,"MEAN_MOTION_DOT":-0.00002188,"MEAN_MOTION_DDOT":0},{"OBJECT_NAME":"ONEWEB-0259","OBJECT_ID":"2021-060L","EPOCH":"2026-07-20T01:56:12.688224","CLASSIFICATION_TYPE":"U","MEAN_MOTION":13.16594464,"ECCENTRICITY":0.00022633,"INCLINATION":87.9076,"RA_OF_ASC_NODE":222.2478,"ARG_OF_PERICENTER":93.9063,"MEAN_ANOMALY":266.2327,"EPHEMERIS_TYPE":0,"NORAD_CAT_ID":48977,"ELEMENT_SET_NO":999,"REV_AT_EPOCH":24395,"BSTAR":-0.00020771029,"MEAN_MOTION_DOT":-6.7e-7,"MEAN_MOTION_DDOT":0},{"OBJECT_NAME":"ONEWEB-0260","OBJECT_ID":"2021-060M","EPOCH":"2026-07-20T01:43:38.574336","CLASSIFICATION_TYPE":"U","MEAN_MOTION":13.16593543,"ECCENTRICITY":0.0001679,"INCLINATION":87.9074,"RA_OF_ASC_NODE":222.2496,"ARG_OF_PERICENTER":94.8413,"MEAN_ANOMALY":265.291,"EPHEMERIS_TYPE":0,"NORAD_CAT_ID":48978,"ELEMENT_SET_NO":999,"REV_AT_EPOCH":24393,"BSTAR":0.00014467574,"MEAN_MOTION_DOT":6.8e-7,"MEAN_MOTION_DDOT":0},{"OBJECT_NAME":"ONEWEB-0261","OBJECT_ID":"2021-060N","EPOCH":"2026-07-20T02:49:47.901792","CLASSIFICATION_TYPE":"U","MEAN_MOTION":13.1659375,"ECCENTRICITY":0.00021081,"INCLINATION":87.9074,"RA_OF_ASC_NODE":222.2417,"ARG_OF_PERICENTER":102.2486,"MEAN_ANOMALY":257.8881,"EPHEMERIS_TYPE":0,"NORAD_CAT_ID":48979,"ELEMENT_SET_NO":999,"REV_AT_EPOCH":24399,"BSTAR":0.000094593339,"MEAN_MOTION_DOT":4.9e-7,"MEAN_MOTION_DDOT":0},{"OBJECT_NAME":"ONEWEB-0262","OBJECT_ID":"2021-060P","EPOCH":"2026-07-20T07:49:35.816736","CLASSIFICATION_TYPE":"U","MEAN_MOTION":13.1659417,"ECCENTRICITY":0.00023626,"INCLINATION":87.9079,"RA_OF_ASC_NODE":222.1873,"ARG_OF_PERICENTER":93.0675,"MEAN_ANOMALY":267.0727,"EPHEMERIS_TYPE":0,"NORAD_CAT_ID":48980,"ELEMENT_SET_NO":999,"REV_AT_EPOCH":24398,"BSTAR":-0.000052362043,"MEAN_MOTION_DOT":-7e-8,"MEAN_MOTION_DDOT":0},{"OBJECT_NAME":"ONEWEB-0263","OBJECT_ID":"2021-060Q","EPOCH":"2026-07-20T01:17:27.055968","CLASSIFICATION_TYPE":"U","MEAN_MOTION":13.16594291,"ECCENTRICITY":0.00022651,"INCLINATION":87.9081,"RA_OF_ASC_NODE":222.2531,"ARG_OF_PERICENTER":101.2125,"MEAN_ANOMALY":258.926,"EPHEMERIS_TYPE":0,"NORAD_CAT_ID":48981,"ELEMENT_SET_NO":999,"REV_AT_EPOCH":24391,"BSTAR":0.00033501971,"MEAN_MOTION_DOT":0.00000141,"MEAN_MOTION_DDOT":0}]}
